STARLINK-30219
1 57507U 23113N   26092.78167151  .00004811  00000+0  16562-3 0  9995
2 57507  43.0008 240.5304 0001581 266.1167  93.9505 15.31103035147356
